GLOBALSTAR M084         
1 38040U 11080A   24289.46764258 -.00000090  00000+0  75200-4 0  9999
2 38040  52.0007  73.4867 0000651 119.8016 281.3328 12.62268774591764
GLOBALSTAR M080         
1 38041U 11080B   24289.43995995 -.00000091  00000+0  73607-4 0  9991
2 38041  52.0057  75.0924 0000907 131.0834 263.8754 12.62267061591889
GLOBALSTAR M082         
1 38042U 11080C   24289.60695557 -.00000094  00000+0  54911-4 0  9992
2 38042  52.0097  30.0053 0000778  65.4105 308.9483 12.62267644592614
GLOBALSTAR M092         
1 38043U 11080D   24289.50530312 -.00000049  00000+0  30532-3 0  9991
2 38043  52.0066 120.6791 0000770  88.3137 304.0196 12.62267981591056
GLOBALSTAR M090         
1 38044U 11080E   24289.55381623 -.00000095  00000+0  48180-4 0  9996
2 38044  51.9913  24.2907 0000681  86.3189 286.6739 12.62268623592727
GLOBALSTAR M086         
1 38045U 11080F   24289.58023815 -.00000091  00000+0  72046-4 0  9990
2 38045  51.9923  24.7415 0001487 125.7946 247.9280 12.62268297592674
GLOBALSTAR M097         
1 39072U 13005A   24289.36645801 -.00000075  00000+0  16157-3 0  9993
2 39072  52.0049 299.6954 0000670  83.7368 276.3575 12.62271872539892
GLOBALSTAR M093         
1 39073U 13005B   24289.41885113 -.00000074  00000+0  16671-3 0  9992
2 39073  51.9810 293.2277 0000706  76.2475 283.8470 12.62265642539852
